[{"OBJECT_NAME":"COSMOS 1408 DEB","OBJECT_ID":"1982-092RU","EPOCH":"2026-02-01T23:31:16.492800","MEAN_MOTION":15.46305412,"ECCENTRICITY":0.00168481,"INCLINATION":82.564,"RA_OF_ASC_NODE":5.9584,"ARG_OF_PERICENTER":34.0196,"MEAN_ANOMALY":326.213,"EPHEMERIS_TYPE":0,"CLASSIFICATION_TYPE":"U","NORAD_CAT_ID":50032,"ELEMENT_SET_NO":999,"REV_AT_EPOCH":23395,"BSTAR":0.00011211442,"MEAN_MOTION_DOT":5.595e-5,"MEAN_MOTION_DDOT":0},{"OBJECT_NAME":"COSMOS 1408 DEB","OBJECT_ID":"1982-092SW","EPOCH":"2026-02-01T22:22:43.127040","MEAN_MOTION":15.6794049,"ECCENTRICITY":0.00109072,"INCLINATION":82.6111,"RA_OF_ASC_NODE":15.6038,"ARG_OF_PERICENTER":264.3482,"MEAN_ANOMALY":95.6535,"EPHEMERIS_TYPE":0,"CLASSIFICATION_TYPE":"U","NORAD_CAT_ID":50058,"ELEMENT_SET_NO":999,"REV_AT_EPOCH":23605,"BSTAR":0.00032433338,"MEAN_MOTION_DOT":0.00036008,"MEAN_MOTION_DDOT":0},{"OBJECT_NAME":"COSMOS 1408 DEB","OBJECT_ID":"1982-092ADS","EPOCH":"2026-02-01T09:13:01.812864","MEAN_MOTION":15.24826565,"ECCENTRICITY":0.01446549,"INCLINATION":82.2005,"RA_OF_ASC_NODE":162.7675,"ARG_OF_PERICENTER":22.1087,"MEAN_ANOMALY":338.6301,"EPHEMERIS_TYPE":0,"CLASSIFICATION_TYPE":"U","NORAD_CAT_ID":50404,"ELEMENT_SET_NO":999,"REV_AT_EPOCH":21962,"BSTAR":0.0023094149,"MEAN_MOTION_DOT":0.00078087,"MEAN_MOTION_DDOT":0},{"OBJECT_NAME":"COSMOS 1408 DEB","OBJECT_ID":"1982-092ALR","EPOCH":"2026-02-01T09:56:11.143968","MEAN_MOTION":15.59775013,"ECCENTRICITY":0.00241265,"INCLINATION":82.5675,"RA_OF_ASC_NODE":21.2948,"ARG_OF_PERICENTER":330.6697,"MEAN_ANOMALY":29.3204,"EPHEMERIS_TYPE":0,"CLASSIFICATION_TYPE":"U","NORAD_CAT_ID":50621,"ELEMENT_SET_NO":999,"REV_AT_EPOCH":23039,"BSTAR":0.00036272359,"MEAN_MOTION_DOT":0.00029544,"MEAN_MOTION_DDOT":0}]
